[
    {
        "Altitude(m)": 610405.3058296982,
        "Argument of Periapsis(deg)": 0.0,
        "Eccentricity": 0.0,
        "Inclination(deg)": 60.0,
        "Latitude(deg)": 52.11122411875156,
        "Longitude(deg)": -2.5227062825420394,
        "Mean Anomaly(deg)": -245.4545,
        "RAAN(deg)": 325.0,
        "Satellite Name": "Test1 1437",
        "Satellite Number": 1437,
        "Semi-Major Axis(m)": 6980739.136638005,
        "Time(s)": 0
    },
    {
        "Altitude(m)": 610321.8792297317,
        "Argument of Periapsis(deg)": 0.00010418945913296404,
        "Eccentricity": 0.0,
        "Inclination(deg)": 60.0,
        "Latitude(deg)": 51.74594039883733,
        "Longitude(deg)": -1.7538116279767406,
        "Mean Anomaly(deg)": -244.83439385453815,
        "RAAN(deg)": 324.99957995086027,
        "Satellite Name": "Test1 1437",
        "Satellite Number": 1437,
        "Semi-Major Axis(m)": 6980739.136638005,
        "Time(s)": 10
    }
]